ONEWEB-0415             
1 51624U 22012C   24272.95453132 -.00000624  00000+0 -18231-2 0  9994
2 51624  87.8963 160.9203 0001995  70.7233 289.4110 13.10371910127278
ONEWEB-0416             
1 51625U 22012D   24272.66071695 -.00000249  00000+0 -74901-3 0  9993
2 51625  87.8977 160.9788 0001763  71.9020 288.2299 13.10372927127276
ONEWEB-0422             
1 51626U 22012E   24272.90585017  .00004529  00000+0  11630-1 0  9990
2 51626  87.9101 130.6067 0001954 105.6852 254.4495 13.17618782131335
ONEWEB-0423             
1 51627U 22012F   24272.89912251  .00002251  00000+0  57637-2 0  9991
2 51627  87.9102 130.6133 0001611  85.4108 274.7207 13.17637216131227
ONEWEB-0425             
1 51628U 22012G   24272.97612928  .00000200  00000+0  53692-3 0  9999
2 51628  87.8976 160.8962 0001389  67.5639 292.5635 13.10375924127319
ONEWEB-0428             
1 51629U 22012H   24272.95619683 -.00000539  00000+0 -15806-2 0  9994
2 51629  87.8969 160.9178 0001915  80.3511 279.7832 13.10373368127270
ONEWEB-0431             
1 51630U 22012J   24272.92620442  .00000413  00000+0  11468-2 0  9997
2 51630  87.8961 160.9135 0002379  80.5424 279.5972 13.10370643127329
ONEWEB-0434             
1 51631U 22012K   24272.97945392  .00000319  00000+0  87820-3 0  9998
2 51631  87.8977 160.9245 0001677  79.7139 280.4177 13.10375617127315
